{"fetched_at":"2026-03-29T02:12:04Z","count":15717,"tles":[{"name":"GUOWANG GROUP 20 OBJECT*","line1":"1 68134U 26047F   26083.10517479 -.00000032  00000+0  77668-4 0  9997","line2":"2 68134  50.0123  11.6502 0000475 222.9253 137.1614 14.01903676  1585","category":"Other"}]}